CCSDS_OEM_VERS = 2.0
CREATION_DATE = 2021-04-04T00:00:00.000
ORIGINATOR = CARA NASA GSFC

META_START
OBJECT_NAME = HST
OBJECT_ID = 20580
CENTER_NAME = Earth
REF_FRAME = EME2000
TIME_SYSTEM = UTC
START_TIME = 2021-04-04T00:00:00.000
STOP_TIME = 2021-04-15T00:00:00.000
META_STOP

2021-04-13T20:20:00.000 -5790.382860299971 3637.18446459132 1008.44946409177 -3.15080118356348 -5.9873865708611405 3.4601295766809597
2021-04-13T20:21:00.000 -5966.701045288031 3270.2917124846604 1213.70718493713 -2.72433349268098 -6.23794100485375 3.37930509455811
2021-04-13T20:22:00.000 -6117.065051813711 2889.1738773792304 1413.6710629322602 -2.28597615825862 -6.461382737957291 3.2837321592369397
2021-04-13T20:23:00.000 -6240.81856092023 2495.48771384873 1607.46835722578 -1.8376391782113701 -6.65673203247692 3.17382698938874
2021-04-13T20:24:00.000 -6337.421227121951 2090.94509627276 1794.2532013967802 -1.38127703405527 -6.823132456184941 3.05006882437669
2021-04-13T20:25:00.000 -6406.451077670501 1677.30545654063 1973.21030940902 -0.918879365665505 -6.9598553865558 2.91299729732454
2021-04-13T20:26:00.000 -6447.6063356302 1256.36806307843 2143.55852239438 -0.452461567935055 -7.066301988905111 2.76320988900528
2021-04-13T20:27:00.000 -6460.70672538148 829.9641709835391 2304.55419838452 0.0159430352361428 -7.14200542778617 2.6013594429388402
2021-04-13T20:28:00.000 -6445.69427359726 399.9490149924061 2455.49449101757 0.48429255103625 -7.18663334386232 2.4281525143737497
2021-04-13T20:29:00.000 -6402.633560561761 -31.806300763200504 2595.72047512751 0.9505453211634379 -7.1999893355239895 2.24434589538816
2021-04-13T20:30:00.000 -6331.711415966841 -463.42298864598905 2724.62003620386 1.4126696540017298 -7.182013939772349 2.05074255709658
2021-04-13T20:31:00.000 -6233.23605707754 -893.022786414729 2841.63053171699 1.86865214441927 -7.1327837304848405 1.8481880037135001
2021-04-13T20:32:00.000 -6107.63576268541 -1318.73610319457 2946.2412354983303 2.31650550144561 -7.05251140320663 1.63756665862552
2021-04-13T20:33:00.000 -5955.45707370695 -1738.71020677888 3037.9955901576404 2.75427658387669 -6.94154633963402 1.4197993920466399
2021-04-13T20:34:00.000 -5777.36239516494 -2151.1174486526 3116.49328628277 3.1800585385332902 -6.80037483586398 1.19583914032329
2021-04-13T20:35:00.000 -5574.126864088841 -2554.16331218211 3181.3919601441 3.59200166320448 -6.62961360317776 0.966663195770089
2021-04-13T20:36:00.000 -5346.63483559689 -2946.09401057622 3232.40848761772 3.98831492183169 -6.43000321037838 0.7332689025211651
2021-04-13T20:37:00.000 -5095.87627162922 -3325.2039802419404 3269.32021190936 4.36727093269847 -6.202411116202721 0.496674322407915
2021-04-13T20:38:00.000 -4822.94253305954 -3689.8434773933004 3291.96607406538 4.72721923888142 -5.94782952936184 0.257913423939786
2021-04-13T20:39:00.000 -4529.02149801415 -4038.4258513529 3300.2473431098 5.06659377867285 -5.66736808990717 0.018028680031579602
2021-04-13T20:40:00.000 -4215.39231918504 -4369.43441748592 3294.1279664427097 5.38391955059412 -5.36224851789673 -0.221933464609536
2021-04-13T20:41:00.000 -3883.41977057281 -4681.42896994859 3273.63473140009 5.6778178337572 -5.03379725557142 -0.46092550617247
2021-04-13T20:42:00.000 -3534.5483616195106 -4973.05195422816 3238.8571743368807 5.947010543924569 -4.68344246215706 -0.697904509643058
2021-04-13T20:43:00.000 -3170.2961204360504 -5243.0344136310205 3189.9471020341603 6.190326194957139 -4.3127080497664 -0.9318383289953419
2021-04-13T20:44:00.000 -2792.2480442213905 -5490.20153670313 3127.11787942528 6.40670451413587 -3.92320728385547 -1.16170741063993
2021-04-13T20:45:00.000 -2402.04926856191 -5713.47785380486 3050.64359674693 6.59520255266141 -3.5166373237477306 -1.38650808790857
2021-04-13T20:46:00.000 -2001.3977931881402 -5911.89201517426 2960.85790878358 6.755001915033461 -3.09476936632191 -1.6052596488582302
2021-04-13T20:47:00.000 -1592.0369901676502 -6084.5808618456795 2858.15252166257 6.88540789350422 -2.6594377774683498 -1.81700798361404
2021-04-13T20:48:00.000 -1175.74816282632 -6230.79315453642 2742.97553774893 6.98585245341804 -2.21253811944768 -2.0208281574685403
2021-04-13T20:49:00.000 -754.342728349002 -6349.892973524021 2615.82953377119 7.05589983718852 -1.7560166751744601 -2.2158301023826104
2021-04-13T20:50:00.000 -329.65429523500103 -6441.3624331991105 2477.26933972674 7.09524597940722 -1.29186028514497 -2.40116267189416
2021-04-13T20:51:00.000 96.46924187115441 -6504.803911932201 2327.89961981773 7.10371920061968 -0.822089945456246 -2.5760164415938402
2021-04-13T20:52:00.000 522.173711721692 -6539.94187557017 2168.37225217065 7.081282136187241 -0.34875265095297603 -2.73962762212905
2021-04-13T20:53:00.000 945.60675798515 -6546.62416871255 1999.3834943838901 7.02803263622802 0.126087405167659 -2.89128106811884
2021-04-13T20:54:00.000 1364.9259772627504 -6524.82277678349 1821.6709819757903 6.94420506500409 0.600358131442003 -3.0303134648856
2021-04-13T20:55:00.000 1778.30710543014 -6474.633965659771 1636.01048572835 6.83016885756084 1.07199063261647 -3.15611746762513
2021-04-13T20:56:00.000 2183.95201882344 -6396.27781402706 1443.21246540182 6.68642585337823 1.53892820005098 -3.2681445310694004
2021-04-13T20:57:00.000 2580.09661344536 -6290.0972112810105 1244.1184786922602 6.513607443383711 1.99913523525443 -3.36590686976706
2021-04-13T20:58:00.000 2965.01848877759 -6156.556349140551 1039.59747958185 6.312472076218359 2.4506053705749 -3.44897946908793
2021-04-13T20:59:00.000 3337.04450746944 -5996.238683606031 830.5419829366541 6.0839028983333 2.89137128260258 -3.5170022195134902
2021-04-13T21:00:00.000 3694.558136952781 -5809.8443086644 617.8641455426219 5.82890266888165 3.3195133972729 -3.5696806703726107
2021-04-13T21:01:00.000 4036.00649984442 -5598.1868804921205 402.49176872971503 5.54858969195608 3.7331674045527503 -3.6067881186392303
2021-04-13T21:02:00.000 4359.907159746371 -5362.19002658177 185.364195529478 5.244193154494931 4.13053354207048 -3.6281666885330903
2021-04-13T21:03:00.000 4664.85461683051 -5102.88319583785 -32.5718305820602 4.91704681068552 4.509885256996871 -3.63372738275011
2021-04-13T21:04:00.000 4949.5263621324 -4821.397090015181 -250.366294047612 4.56858284131657 4.86957514419309 -3.62345058802683
2021-04-13T21:05:00.000 5212.688654528681 -4518.95869487245 -467.07011403150307 4.200326641079501 5.20804246167482 -3.59738680960509
2021-04-13T21:06:00.000 5453.20188195138 -4196.88582892342 -681.739318381023 3.81388913606228 5.52382138210303 -3.55565568467559
2021-04-13T21:07:00.000 5670.02544858295 -3856.5812742846 -893.43916662717 3.41095881487063 5.8155465558753505 -3.49844532921722
2021-04-13T21:08:00.000 5862.222212960621 -3499.52657710619 -1101.2482440748201 2.99329423200935 6.0819586192246 -3.42601150079566
2021-04-13T21:09:00.000 6028.9624569240395 -3127.2755452782103 -1304.26246894111 2.56271648447637 6.32190929073452 -3.3386759213019297
2021-04-13T21:10:00.000 6169.52741599682 -2741.44741413997 -1501.5989936044402 2.1211015563270097 6.534366458393599 -3.2368244484215505
2021-04-13T21:11:00.000 6283.312327802091 -2343.7197554972 -1692.4000178751803 1.67037206651582 6.71841849030008 -3.1209058238844998
2021-04-13T21:12:00.000 6369.82896326688 -1935.82113083188 -1875.83651021646 1.2124884845916901 6.8732779459571 -2.99143006262662
2021-04-13T21:13:00.000 6428.70764513867 -1519.52355321915 -2051.11181992351 0.74944070655304 6.99828427295626 -2.84896592167305
2021-04-13T21:14:00.000 6459.698794454191 -1096.6347535919801 -2217.46511934418 0.283240433489294 7.09290833879197 -2.69413850966906
2021-04-13T21:15:00.000 6462.67385656235 -668.9901962944072 -2374.17471083932 -0.184091770857331 7.15675457579381 -2.52762624056703
2021-04-13T21:16:00.000 6437.62559477003 -238.44511772976801 -2520.56109245612 -0.650533563258041 7.1895595482330705 -2.3501567031987802
2021-04-13T21:17:00.000 6384.667975269261 193.13342984142602 -2655.9898147697604 -1.11406848297302 7.19119299575918 -2.1625036166926304
2021-04-13T21:18:00.000 6304.035589008511 623.8745925989111 -2779.87417378318 -1.5726935787260001 7.161658553899679 -1.96548429295974
2021-04-13T21:19:00.000 6196.0825632449805 1051.9117732029101 -2891.67772478878 -2.0244288822557603 7.10109435947437 -1.75995591942069
2021-04-13T21:20:00.000 6061.280913074131 1475.39065519116 -2990.91653909018 -2.4673260173373404 7.009771497007381 -1.5468113694715702
2021-04-13T21:21:00.000 5900.218419062241 1892.47714445924 -3077.1612387587606 -2.8994758314341302 6.888092611524731 -1.32697526793934
2021-04-13T21:22:00.000 5713.59603796515 2301.36521316383 -3150.0387784390605 -3.3190162201599005 6.73659018260911 -1.10140032514253
2021-04-13T21:23:00.000 5502.22484153234 2700.28461427696 -3209.23402419262 -3.72414027967827 6.555924221935791 -0.8710633712792161
2021-04-13T21:24:00.000 5267.022456415341 3087.5084532335 -3254.49106232517 -4.113104113503841 6.34687891551252 -0.636960945507926
2021-04-13T21:25:00.000 5009.009084709361 3461.3605128715703 -3285.6142623580704 -4.48423365960838 6.11035890875608 -0.400105160018689
2021-04-13T21:26:00.000 4729.30311508153 3820.2223785157603 -3302.4690821646104 -4.83593112384089 5.84738555840846 -0.161519665904393
2021-04-13T21:27:00.000 4429.1163489601695 4162.54032592114 -3304.9826453207097 -5.16668159614577 5.55909312642689 0.0777645393407636
2021-04-13T21:28:00.000 4109.74883457602 4486.83195264091 -3293.1440456549703 -5.47505969473481 5.24672405250814 0.316713389387669
2021-04-13T21:29:00.000 3772.58329757051 4791.692517771181 -3267.0044049750204 -5.759735621973601 4.91162353111933 0.5542940914481831
2021-04-13T21:30:00.000 3419.07925035888 5075.80093533073 -3226.6766671368005 -6.019480542570831 4.55523397565927 0.789479492273786
2021-04-13T21:31:00.000 3050.76677983781 5337.925433168631 -3172.33512345592 -6.253171784127221 4.179089179038461 1.02125247079566
